{
    "links": {
        "self": "http://www.neowsapp.com/rest/v1/neo/3273459?api_key=iIulBulltgU6a56xZRHN4H3l9WmuAYTsLGpBGhQ2"
    },
    "id": "3273459",
    "neo_reference_id": "3273459",
    "name": "(2005 ES1)",
    "designation": "2005 ES1",
    "nasa_jpl_url": "http://ssd.jpl.nasa.gov/sbdb.cgi?sstr=3273459",
    "absolute_magnitude_h": 26.8,
    "estimated_diameter": {
        "kilometers": {
            "estimated_diameter_min": 0.0116025908,
            "estimated_diameter_max": 0.0259441818
        },
        "meters": {
            "estimated_diameter_min": 11.6025908209,
            "estimated_diameter_max": 25.9441817907
        },
        "miles": {
            "estimated_diameter_min": 0.0072095135,
            "estimated_diameter_max": 0.0161209622
        },
        "feet": {
            "estimated_diameter_min": 38.066244069,
            "estimated_diameter_max": 85.1187093863
        }
    },
    "is_potentially_hazardous_asteroid": false,
    "close_approach_data": [
        {
            "close_approach_date": "2000-01-11",
            "close_approach_date_full": "2000-Jan-11 11:45",
            "epoch_date_close_approach": 947591100000,
            "relative_velocity": {
                "kilometers_per_second": "9.2808760884",
                "kilometers_per_hour": "33411.1539182471",
                "miles_per_hour": "20760.3917221463"
            },
            "miss_distance": {
                "astronomical": "0.0328976272",
                "lunar": "12.7971769808",
                "kilometers": "4921414.957174064",
                "miles": "3058025.4518635232"
            },
            "orbiting_body": "Mars"
        },
        {
            "close_approach_date": "2005-02-24",
            "close_approach_date_full": "2005-Feb-24 04:32",
            "epoch_date_close_approach": 1109219520000,
            "relative_velocity": {
                "kilometers_per_second": "5.557791937",
                "kilometers_per_hour": "20008.050973113",
                "miles_per_hour": "12432.2247838212"
            },
            "miss_distance": {
                "astronomical": "0.0126037371",
                "lunar": "4.9028537319",
                "kilometers": "1885492.224199977",
                "miles": "1171590.5407426026"
            },
            "orbiting_body": "Earth"
        },
        {
            "close_approach_date": "2009-06-08",
            "close_approach_date_full": "2009-Jun-08 07:31",
            "epoch_date_close_approach": 1244446260000,
            "relative_velocity": {
                "kilometers_per_second": "7.4056235822",
                "kilometers_per_hour": "26660.2448959323",
                "miles_per_hour": "16565.6393910308"
            },
            "miss_distance": {
                "astronomical": "0.0916039379",
                "lunar": "35.6339318431",
                "kilometers": "13703753.993452273",
                "miles": "8515117.8802684474"
            },
            "orbiting_body": "Mars"
        }
    ],
    "orbital_data": {
        "orbit_id": "8",
        "orbit_determination_date": "2017-04-06 09:11:25",
        "first_observation_date": "2005-03-03",
        "last_observation_date": "2005-03-07",
        "data_arc_in_days": 4,
        "observations_used": 19,
        "orbit_uncertainty": "8",
        "minimum_orbit_intersection": ".00709458",
        "jupiter_tisserand_invariant": "4.812",
        "epoch_osculation": "2453433.5",
        "eccentricity": ".2955858593576136",
        "semi_major_axis": "1.356213834867758",
        "inclination": "1.858451505219287",
        "ascending_node_longitude": "164.6868886806093",
        "orbital_period": "576.8869070577983",
        "perihelion_distance": ".9553362030156869",
        "perihelion_argument": "315.1513727620901",
        "aphelion_distance": "1.757091466719828",
        "perihelion_time": "2453395.487532503321",
        "mean_anomaly": "23.72126690931016",
        "mean_motion": ".6240391237791284",
        "equinox": "J2000",
        "orbit_class": {
            "orbit_class_type": "APO",
            "orbit_class_description": "Near-Earth asteroid orbits which cross the Earth’s orbit similar to that of 1862 Apollo",
            "orbit_class_range": "a (semi-major axis) > 1.0 AU; q (perihelion) < 1.017 AU"
        }
    },
    "is_sentry_object": false
}